# This dictionary was parsed from the contents of this website:
# http://www.cfa.harvard.edu/iau/Ephemerides/Comets/Soft03Cmt.txt
# it can be used with pyephem to create objects which can give the
# position of these objects for any date 
# For specific use with UpdateEphemeris

ephemerisComets = {
 '100P/Hartley': '100P/Hartley,e,25.6545,37.8449,181.7084,3.409714,0.1565407,0.41859990,4.5164,01/04.0/2010,2000,g  9.0,8.0\n',
 '104P/Kowal': '104P/Kowal,e,10.2678,235.5202,200.5426,3.261368,0.1673418,0.63828611,339.8146,01/04.0/2010,2000,g 12.5,4.0\n',
 '10P/Tempel': '10P/Tempel,e,12.0225,117.8262,195.6532,3.067994,0.1834097,0.53625135,326.6376,01/04.0/2010,2000,g  5.0,10.0\n',
 '116P/Wild': '116P/Wild,e,3.6130,21.0339,173.5826,3.476784,0.1520329,0.37443820,25.7181,01/04.0/2010,2000,g  2.5,10.0\n',
 '117P/Helin-Roman-Alu': '117P/Helin-Roman-Alu,e,8.7015,58.9311,223.0283,4.087234,0.1192778,0.25509326,175.9580,01/04.0/2010,2000,g  2.5,8.0\n',
 '118P/Shoemaker-Levy': '118P/Shoemaker-Levy,e,8.5094,151.8072,302.1445,3.464448,0.1528456,0.42734769,0.2582,01/04.0/2010,2000,g 12.0,4.0\n',
 '119P/Parker-Hartley': '119P/Parker-Hartley,e,5.1920,244.0741,181.0851,4.283038,0.1111927,0.29083924,187.5950,01/04.0/2010,2000,g  3.5,8.0\n',
 '123P/West-Hartley': '123P/West-Hartley,e,15.3544,46.6017,102.7883,3.858107,0.1300597,0.44786625,288.9165,01/04.0/2010,2000,g  4.0,10.0\n',
 '126P/IRAS': '126P/IRAS,e,45.8294,357.7611,356.7343,5.647427,0.0734392,0.69660656,356.3519,01/04.0/2010,2000,g  6.0,8.0\n',
 '127P/Holt-Olmstead': '127P/Holt-Olmstead,e,14.3218,13.6846,6.5425,3.443232,0.1542604,0.36230890,11.5122,01/04.0/2010,2000,g 11.0,6.0\n',
 '128P/Shoemaker-Holt': '128P/Shoemaker-Holt,e,4.3585,214.3648,210.3538,4.510596,0.1028853,0.32054599,96.2508,01/04.0/2010,2000,g  8.5,4.0\n',
 '131P/Mueller': '131P/Mueller,e,7.3548,214.2224,179.6394,3.679892,0.1396212,0.34274903,257.5107,01/04.0/2010,2000,g 11.0,4.0\n',
 '136P/Mueller': '136P/Mueller,e,9.4274,137.5519,225.0169,4.192565,0.1148112,0.29353998,92.3114,01/04.0/2010,2000,g 11.0,4.0\n',
 '137P/Shoemaker-Levy': '137P/Shoemaker-Levy,e,4.8534,233.1192,140.8308,4.502227,0.1031723,0.57455555,24.2864,01/04.0/2010,2000,g 11.0,4.0\n',
 '139P/Vaisala-Oterma': '139P/Vaisala-Oterma,e,2.3287,242.4255,165.5955,4.520418,0.1025501,0.24726359,64.0172,01/04.0/2010,2000,g  9.5,4.0\n',
 '141P/Machholz': '141P/Machholz,e,12.8038,246.0891,149.3454,3.020401,0.1877617,0.74913762,332.6402,01/04.0/2010,2000,g 12.0,12.0\n',
 '142P/Ge-Wang': '142P/Ge-Wang,e,12.3029,176.5253,175.7984,4.973638,0.0888573,0.49981980,346.9579,01/04.0/2010,2000,g  8.5,6.0\n',
 '143P/Kowal-Mrkos': '143P/Kowal-Mrkos,e,4.6902,245.3670,320.7641,4.299264,0.1105638,0.40960498,22.7543,01/04.0/2010,2000,g 13.5,2.0\n',
 '145P/Shoemaker-Levy': '145P/Shoemaker-Levy,e,11.2990,26.8972,10.1635,4.132751,0.1173127,0.54232229,33.2394,01/04.0/2010,2000,g 13.5,4.0\n',
 '149P/Mueller': '149P/Mueller,e,29.7350,145.2659,43.7697,4.335356,0.1091860,0.38853372,354.9537,01/04.0/2010,2000,g  8.0,8.0\n',
 '14P/Wolf': '14P/Wolf,e,27.9437,202.1176,159.0240,4.242558,0.1127879,0.35783211,35.0352,01/04.0/2010,2000,g  5.5,12.0\n',
 '150P/LONEOS': '150P/LONEOS,e,18.4994,272.4280,245.6740,3.890807,0.1284235,0.54557832,51.8896,01/04.0/2010,2000,g 13.5,4.0\n',
 '152P/Helin-Lawrence': '152P/Helin-Lawrence,e,9.8689,91.9528,163.9090,4.498343,0.1033059,0.30803237,265.2194,01/04.0/2010,2000,g 11.5,4.0\n',
 '157P/Tritton': '157P/Tritton,e,7.2775,300.1078,148.7460,3.409566,0.1565508,0.60107405,352.5584,01/04.0/2010,2000,g 10.0,4.0\n',
 '158P/Kowal-LINEAR': '158P/Kowal-LINEAR,e,7.9085,137.3089,231.5503,4.719334,0.0961353,0.02944982,265.2603,01/04.0/2010,2000,g  9.0,4.0\n',
 '162P/Siding Spring': '162P/Siding Spring,e,27.8159,31.2412,356.3052,3.053035,0.1847594,0.59611874,348.2822,01/04.0/2010,2000,g 12.0,4.0\n',
 '164P/Christensen': '164P/Christensen,e,16.2666,88.3628,325.9236,3.649541,0.1413665,0.54133314,287.2616,01/04.0/2010,2000,g 11.0,4.0\n',
 '166P/NEAT': '166P/NEAT,e,15.3682,64.4283,321.5725,13.83829,0.0191461,0.38244312,53.4209,01/04.0/2010,2000,g  5.5,4.0\n',
 '167P/CINEOS': '167P/CINEOS,e,19.0897,295.7768,344.7716,16.27484,0.0150117,0.27360402,47.3339,01/04.0/2010,2000,g  9.5,2.0\n',
 '169P/NEAT': '169P/NEAT,e,11.2999,176.1885,217.9614,2.606091,0.2342717,0.76679726,8.1282,01/04.0/2010,2000,g 16.0,2.0\n',
 '172P/Yeung': '172P/Yeung,e,11.5188,39.9408,179.3842,3.519403,0.1492796,0.36297842,66.7680,01/04.0/2010,2000,g 13.0,4.0\n',
 '173P/Mueller': '173P/Mueller,e,16.4937,100.5442,29.6554,5.698618,0.0724519,0.26076765,43.2566,01/04.0/2010,2000,g  7.5,4.0\n',
 '174P/Echeclus': '174P/Echeclus,e,4.3410,173.3902,162.6014,10.75050,0.0279615,0.45801843,306.0136,01/04.0/2010,2000,g  9.5,2.0\n',
 '176P/LINEAR': '176P/LINEAR,e,0.2378,346.5055,35.9710,3.192840,0.1727581,0.19345491,265.9068,01/04.0/2010,2000,g 15.0,2.0\n',
 '179P/Jedicke': '179P/Jedicke,e,19.8716,115.8466,295.4755,5.912477,0.0685567,0.30887266,52.2916,01/04.0/2010,2000,g  2.5,8.0\n',
 '17P/Holmes': '17P/Holmes,e,19.1145,326.8536,24.3499,3.620627,0.1430634,0.43287246,139.4847,01/04.0/2010,2000,g 10.0,6.0\n',
 '180P/NEAT': '180P/NEAT,e,16.9036,84.7409,95.0969,3.845755,0.1306868,0.35723822,76.7064,01/04.0/2010,2000,g 11.0,4.0\n',
 '183P/Korlevic-Juric': '183P/Korlevic-Juric,e,18.7369,5.8488,161.4384,4.500513,0.1032312,0.13492175,62.6306,01/04.0/2010,2000,g 12.5,2.0\n',
 '186P/Garradd': '186P/Garradd,e,28.8684,327.7730,282.6454,4.896477,0.0909659,0.12598700,56.4948,01/04.0/2010,2000,g  7.5,4.0\n',
 '187P/LINEAR': '187P/LINEAR,e,13.7197,111.9998,132.6223,4.466578,0.1044099,0.17252771,46.9941,01/04.0/2010,2000,g  9.0,4.0\n',
 '195P/Hill': '195P/Hill,e,36.3621,243.2270,249.5837,6.477062,0.0597912,0.31477755,20.8276,01/04.0/2010,2000,g  8.5,4.0\n',
 '199P/Shoemaker': '199P/Shoemaker,e,24.7359,92.8785,191.9153,5.974926,0.0674847,0.50886025,18.1805,01/04.0/2010,2000,g 10.0,4.0\n',
 '200P/Larsen': '200P/Larsen,e,12.1181,234.8143,133.8235,4.911074,0.0905606,0.33358077,44.9481,01/04.0/2010,2000,g  9.0,4.0\n',
 '202P/Scotti': '202P/Scotti,e,2.1852,194.5665,255.5499,3.777129,0.1342645,0.33103392,44.4459,01/04.0/2010,2000,g 13.5,4.0\n',
 '203P/Korlevic': '203P/Korlevic,e,2.9759,290.5643,154.5441,4.645907,0.0984234,0.31506903,356.5361,01/04.0/2010,2000,g 14.5,2.0\n',
 '211P/Hill': '211P/Hill,e,18.8712,117.2929,4.3694,3.565971,0.1463650,0.33766104,35.3200,01/04.0/2010,2000,g 12.5,4.0\n',
 '213P/Van Ness': '213P/Van Ness,e,10.2397,312.6870,3.2302,3.423453,0.1555993,0.37974290,277.8443,01/04.0/2010,2000,g 10.5,4.0\n',
 '215P/NEAT': '215P/NEAT,e,12.7911,75.4441,222.4199,4.021186,0.1222286,0.20086744,341.0682,01/04.0/2010,2000,g 11.0,4.0\n',
 '217P/LINEAR': '217P/LINEAR,e,12.8815,125.6211,246.7486,3.942729,0.1258951,0.68955221,14.7336,01/04.0/2010,2000,g 12.0,4.0\n',
 '219P/LINEAR': '219P/LINEAR,e,11.5201,231.0714,107.7758,3.655296,0.1410328,0.35318708,351.4203,01/04.0/2010,2000,g 11.0,4.0\n',
 '220P/McNaught': '220P/McNaught,e,8.1327,150.1181,180.7575,3.113947,0.1793648,0.50268117,3.5098,01/04.0/2010,2000,g 15.0,4.0\n',
 '223P/Skiff': '223P/Skiff,e,27.0542,346.8278,37.9245,4.153975,0.1164148,0.41760929,334.0715,01/04.0/2010,2000,g 12.0,4.0\n',
 '224P/LINEAR-NEAT': '224P/LINEAR-NEAT,e,13.4361,40.5285,16.0912,3.409052,0.1565862,0.41637891,355.6422,01/04.0/2010,2000,g 15.5,4.0\n',
 '226P/Pigott-LINEAR-Kowalski': '226P/Pigott-LINEAR-Kowalski,e,44.0212,54.0678,340.9630,3.764154,0.1349594,0.52998556,32.0864,01/04.0/2010,2000,g 12.5,4.0\n',
 '227P/Catalina-LINEAR': '227P/Catalina-LINEAR,e,6.5248,49.8858,90.1393,3.588714,0.1449759,0.49986938,324.8111,01/04.0/2010,2000,g 16.5,2.0\n',
 '228P/LINEAR': '228P/LINEAR,e,7.9160,31.0709,114.9119,4.164954,0.1159548,0.17641244,290.6959,01/04.0/2010,2000,g 14.5,2.0\n',
 '229P/Gibbs': '229P/Gibbs,e,26.1104,157.9802,224.0181,3.922798,0.1268558,0.37792650,19.3808,01/04.0/2010,2000,g 13.0,4.0\n',
 '22P/Kopff': '22P/Kopff,e,4.7235,120.8888,162.7883,3.461440,0.1530449,0.54435194,34.2254,01/04.0/2010,2000,g  3.0,10.4\n',
 '230P/LINEAR': '230P/LINEAR,e,14.6426,112.5092,308.7323,3.399657,0.1572358,0.56290240,23.2971,01/04.0/2010,2000,g 13.0,4.0\n',
 '231P/LINEAR-NEAT': '231P/LINEAR-NEAT,e,12.3289,133.0993,42.6041,4.022162,0.1221841,0.24620772,299.1131,01/04.0/2010,2000,g 14.5,2.0\n',
 '232P/Hill': '232P/Hill,e,14.6344,56.1415,53.4226,4.483740,0.1038110,0.33466829,9.8110,01/04.0/2010,2000,g 11.5,4.0\n',
 '24P/Schaumasse': '24P/Schaumasse,e,11.7293,79.7161,57.9951,4.095167,0.1189314,0.70358029,17.5282,01/04.0/2010,2000,g  6.5,14.0\n',
 '29P/Schwassmann-Wachmann': '29P/Schwassmann-Wachmann,e,9.3930,312.6345,48.7702,5.989072,0.0672457,0.04513787,134.8177,01/04.0/2010,2000,g  4.0,4.0\n',
 '2P/Encke': '2P/Encke,e,11.7843,334.5718,186.5242,2.215386,0.2989028,0.84826493,295.8823,01/04.0/2010,2000,g 11.5,6.0\n',
 '30P/Reinmuth': '30P/Reinmuth,e,8.1224,119.7544,13.2123,3.775213,0.1343668,0.50093900,345.8165,01/04.0/2010,2000,g  9.5,6.0\n',
 '31P/Schwassmann-Wachmann': '31P/Schwassmann-Wachmann,e,4.5473,114.1900,17.9936,4.240044,0.1128882,0.19242037,329.6479,01/04.0/2010,2000,g  5.0,8.0\n',
 '36P/Whipple': '36P/Whipple,e,9.9358,182.3954,201.8816,4.165012,0.1159524,0.25872792,275.7820,01/04.0/2010,2000,g  8.5,6.0\n',
 '37P/Forbes': '37P/Forbes,e,8.9605,315.0488,329.3852,3.430968,0.1550883,0.54125242,250.5406,01/04.0/2010,2000,g 10.5,4.8\n',
 '43P/Wolf-Harrington': '43P/Wolf-Harrington,e,15.9650,249.9078,191.4419,3.349269,0.1607974,0.59462743,331.2628,01/04.0/2010,2000,g  8.0,6.0\n',
 '44P/Reinmuth': '44P/Reinmuth,e,5.9030,286.6006,58.1605,3.687697,0.1391782,0.42848072,95.4059,01/04.0/2010,2000,g  8.3,6.0\n',
 '47P/Ashbrook-Jackson': '47P/Ashbrook-Jackson,e,13.0530,356.9821,357.7233,4.110908,0.1182490,0.31901597,39.8376,01/04.0/2010,2000,g  1.0,11.2\n',
 '49P/Arend-Rigaux': '49P/Arend-Rigaux,e,19.0872,118.9407,332.9242,3.556757,0.1469342,0.60110519,264.0440,01/04.0/2010,2000,g 11.3,4.4\n',
